STARLINK-3552           
1 51813U 22017AX  26068.94929655 -.00000222  00000+0  41028-5 0  9997
2 51813  53.2185 327.9839 0001122  78.4437 281.6681 15.08832758224124
LEMUR-2-TILLINFINITY    
1 63356U 25061F   26068.90312914  .00005472  00000+0  30454-3 0  9994
2 63356  97.5532  45.5587 0016891 226.7020 133.2804 15.13945199 52616
